{"fetched_at":"2026-07-08T17:59:51.887Z","source":"https://celestrak.org/NORAD/elements/gp.php?NAME=JILIN&FORMAT=JSON","constellation":"jilin-1-early","records":[{"OBJECT_NAME":"JILIN-1","OBJECT_ID":"2015-057D","EPOCH":"2026-07-08T11:19:18.271200","CLASSIFICATION_TYPE":"U","MEAN_MOTION":14.78194602,"ECCENTRICITY":0.0016598,"INCLINATION":97.6515,"RA_OF_ASC_NODE":187.7824,"ARG_OF_PERICENTER":188.7528,"MEAN_ANOMALY":171.3397,"EPHEMERIS_TYPE":0,"NORAD_CAT_ID":40961,"ELEMENT_SET_NO":999,"REV_AT_EPOCH":57875,"BSTAR":0.000094651,"MEAN_MOTION_DOT":0.00000639,"MEAN_MOTION_DDOT":0},{"OBJECT_NAME":"JILIN-1 03","OBJECT_ID":"2017-002B","EPOCH":"2026-07-08T12:11:22.591968","CLASSIFICATION_TYPE":"U","MEAN_MOTION":15.42113681,"ECCENTRICITY":0.0008039,"INCLINATION":97.1954,"RA_OF_ASC_NODE":196.2983,"ARG_OF_PERICENTER":97.0978,"MEAN_ANOMALY":263.1184,"EPHEMERIS_TYPE":0,"NORAD_CAT_ID":41914,"ELEMENT_SET_NO":999,"REV_AT_EPOCH":52514,"BSTAR":0.00023542,"MEAN_MOTION_DOT":0.00010001,"MEAN_MOTION_DDOT":0},{"OBJECT_NAME":"JILIN-1 04","OBJECT_ID":"2017-074A","EPOCH":"2026-07-08T11:47:03.525792","CLASSIFICATION_TYPE":"U","MEAN_MOTION":15.43009358,"ECCENTRICITY":0.0005166,"INCLINATION":97.4865,"RA_OF_ASC_NODE":299.681,"ARG_OF_PERICENTER":117.7003,"MEAN_ANOMALY":242.4769,"EPHEMERIS_TYPE":0,"NORAD_CAT_ID":43022,"ELEMENT_SET_NO":999,"REV_AT_EPOCH":47755,"BSTAR":0.00022756,"MEAN_MOTION_DOT":0.00009947,"MEAN_MOTION_DDOT":0},{"OBJECT_NAME":"JILIN-1 05","OBJECT_ID":"2017-074B","EPOCH":"2026-07-08T12:23:43.381248","CLASSIFICATION_TYPE":"U","MEAN_MOTION":15.34215402,"ECCENTRICITY":0.0006114,"INCLINATION":97.487,"RA_OF_ASC_NODE":295.9651,"ARG_OF_PERICENTER":143.2952,"MEAN_ANOMALY":216.8711,"EPHEMERIS_TYPE":0,"NORAD_CAT_ID":43023,"ELEMENT_SET_NO":999,"REV_AT_EPOCH":47727,"BSTAR":0.00019394,"MEAN_MOTION_DOT":0.00006344,"MEAN_MOTION_DDOT":0},{"OBJECT_NAME":"JILIN-1 06","OBJECT_ID":"2017-074C","EPOCH":"2026-07-08T11:47:15.967392","CLASSIFICATION_TYPE":"U","MEAN_MOTION":15.33946175,"ECCENTRICITY":0.0007598,"INCLINATION":97.4797,"RA_OF_ASC_NODE":292.9208,"ARG_OF_PERICENTER":154.431,"MEAN_ANOMALY":205.7309,"EPHEMERIS_TYPE":0,"NORAD_CAT_ID":43024,"ELEMENT_SET_NO":999,"REV_AT_EPOCH":47710,"BSTAR":0.00012289,"MEAN_MOTION_DOT":0.00003956,"MEAN_MOTION_DDOT":0},{"OBJECT_NAME":"JILIN-1 07","OBJECT_ID":"2018-008E","EPOCH":"2026-07-08T11:25:58.020672","CLASSIFICATION_TYPE":"U","MEAN_MOTION":15.35088158,"ECCENTRICITY":0.0007504,"INCLINATION":97.177,"RA_OF_ASC_NODE":208.8406,"ARG_OF_PERICENTER":355.4216,"MEAN_ANOMALY":4.6958,"EPHEMERIS_TYPE":0,"NORAD_CAT_ID":43159,"ELEMENT_SET_NO":999,"REV_AT_EPOCH":46826,"BSTAR":0.00018339,"MEAN_MOTION_DOT":0.00006171,"MEAN_MOTION_DDOT":0},{"OBJECT_NAME":"JILIN-1 08","OBJECT_ID":"2018-008F","EPOCH":"2026-07-08T11:47:37.334112","CLASSIFICATION_TYPE":"U","MEAN_MOTION":15.33958778,"ECCENTRICITY":0.0006139,"INCLINATION":97.1806,"RA_OF_ASC_NODE":208.1481,"ARG_OF_PERICENTER":17.1907,"MEAN_ANOMALY":342.9543,"EPHEMERIS_TYPE":0,"NORAD_CAT_ID":43160,"ELEMENT_SET_NO":999,"REV_AT_EPOCH":46821,"BSTAR":0.0001299,"MEAN_MOTION_DOT":0.00004192,"MEAN_MOTION_DDOT":0},{"OBJECT_NAME":"JILIN-1 09","OBJECT_ID":"2019-005B","EPOCH":"2026-07-08T12:01:20.610336","CLASSIFICATION_TYPE":"U","MEAN_MOTION":15.2070391,"ECCENTRICITY":0.0002873,"INCLINATION":97.4741,"RA_OF_ASC_NODE":284.2842,"ARG_OF_PERICENTER":50.8562,"MEAN_ANOMALY":309.2928,"EPHEMERIS_TYPE":0,"NORAD_CAT_ID":43943,"ELEMENT_SET_NO":999,"REV_AT_EPOCH":41238,"BSTAR":0.00014932,"MEAN_MOTION_DOT":0.00003213,"MEAN_MOTION_DDOT":0},{"OBJECT_NAME":"JILIN-1 10","OBJECT_ID":"2019-005E","EPOCH":"2026-07-08T12:08:09.208032","CLASSIFICATION_TYPE":"U","MEAN_MOTION":15.25958307,"ECCENTRICITY":0.0007904,"INCLINATION":97.4789,"RA_OF_ASC_NODE":288.3138,"ARG_OF_PERICENTER":192.6586,"MEAN_ANOMALY":167.4455,"EPHEMERIS_TYPE":0,"NORAD_CAT_ID":43946,"ELEMENT_SET_NO":999,"REV_AT_EPOCH":41256,"BSTAR":0.00016249,"MEAN_MOTION_DOT":0.00004101,"MEAN_MOTION_DDOT":0}]}
