JILIN-1                 
1 40961U 15057D   26189.47173925  .00000639  00000+0  94651-4 0  9998
2 40961  97.6515 187.7824 0016598 188.7528 171.3397 14.78194602578755
JILIN-1 03              
1 41914U 17002B   26189.50790037  .00010001  00000+0  23542-3 0  9996
2 41914  97.1954 196.2983 0008039  97.0978 263.1184 15.42113681525148
JILIN-1 04              
1 43022U 17074A   26189.49101303  .00009947  00000+0  22756-3 0  9990
2 43022  97.4865 299.6810 0005166 117.7003 242.4769 15.43009358477554
JILIN-1 05              
1 43023U 17074B   26189.51647432  .00006344  00000+0  19394-3 0  9994
2 43023  97.4870 295.9651 0006114 143.2952 216.8711 15.34215402477274
JILIN-1 06              
1 43024U 17074C   26189.49115703  .00003956  00000+0  12289-3 0  9995
2 43024  97.4797 292.9208 0007598 154.4310 205.7309 15.33946175477106
JILIN-1 07              
1 43159U 18008E   26189.47636598  .00006171  00000+0  18339-3 0  9994
2 43159  97.1770 208.8406 0007504 355.4216   4.6958 15.35088158468267
JILIN-1 08              
1 43160U 18008F   26189.49140433  .00004192  00000+0  12990-3 0  9994
2 43160  97.1806 208.1481 0006139  17.1907 342.9543 15.33958778468212
JILIN-1 09              
1 43943U 19005B   26189.50093299  .00003213  00000+0  14932-3 0  9991
2 43943  97.4741 284.2842 0002873  50.8562 309.2928 15.20703910412382
JILIN-1 10              
1 43946U 19005E   26189.50566213  .00004101  00000+0  16249-3 0  9995
2 43946  97.4789 288.3138 0007904 192.6586 167.4455 15.25958307412567
